{"type": "FeatureCollection", "properties": {"display_hours": "Mon-Fri 07:00-18:00", "bandwidth_m": 150.0, "total_sites": 5464}, "features": [{"type": "Feature", "properties": {"level": 0.52}, "geometry": {"type": "LineString", "coordinates": [[-74.009911, 40.716764], [-74.009318, 40.716411], [-74.008725, 40.716456], [-74.008313, 40.716788], [-74.008132, 40.716902], [-74.007762, 40.717237], [-74.007538, 40.717409], [-74.007188, 40.717686], [-74.006945, 40.717907], [-74.006677, 40.718135], [-74.006419, 40.718584], [-74.006434, 40.719034], [-74.006704, 40.719483], [-74.006945, 40.71968], [-74.007257, 40.719932], [-74.007538, 40.720095], [-74.008132, 40.720372], [-74.008168, 40.720381], [-74.008725, 40.720532], [-74.009318, 40.7205], [-74.009523, 40.720381], [-74.009911, 40.720113], [-74.010041, 40.719932], [-74.010294, 40.719483], [-74.010464, 40.719034], [-74.010504, 40.718827], [-74.010544, 40.718584], [-74.010547, 40.718135], [-74.010504, 40.717861], [-74.010464, 40.717686], [-74.010249, 40.717237], [-74.009929, 40.716788], [-74.009911, 40.716764]]}}, {"type": "Feature", "properties": {"level": 0.52}, "geometry": {"type": "LineString", "coordinates": [[-74.000421, 40.718866], [-73.999827, 40.718883], [-73.999367, 40.719034], [-73.999234, 40.719066], [-73.998641, 40.71931], [-73.998286, 40.719483], [-73.998048, 40.71958], [-73.997455, 40.719832], [-73.997198, 40.719932], [-73.996862, 40.720088], [-73.996268, 40.72038], [-73.996267, 40.720381], [-73.995839, 40.72083], [-73.995757, 40.721279], [-73.995786, 40.721728], [-73.995825, 40.722178], [-73.995823, 40.722627], [-73.995754, 40.723076], [-73.995675, 40.723301], [-73.995577, 40.723525], [-73.995231, 40.723974], [-73.995082, 40.7241], [-73.994579, 40.724423], [-73.994489, 40.724469], [-73.993896, 40.724747], [-73.993645, 40.724873], [-73.993303, 40.725057], [-73.992894, 40.725322], [-73.992709, 40.725499], [-73.992462, 40.725771], [-73.992286, 40.72622], [-73.992295, 40.726669], [-73.992449, 40.727118], [-73.992709, 40.727531], [-73.992736, 40.727567], [-73.993148, 40.728017], [-73.993303, 40.728167], [-73.993747, 40.728466], [-73.993896, 40.728571], [-73.994489, 40.728748], [-73.995082, 40.72864], [-73.995341, 40.728466], [-73.995675, 40.728271], [-73.995942, 40.728017], [-73.996268, 40.727713], [-73.996406, 40.727567], [-73.996845, 40.727118], [-73.996862, 40.727103], [-73.997455, 40.726679], [-73.997482, 40.726669], [-73.998048, 40.726519], [-73.998641, 40.726537], [-73.999228, 40.726669], [-73.999234, 40.726671], [-73.999827, 40.726925], [-74.00028, 40.727118], [-74.000421, 40.727198], [-74.001014, 40.727449], [-74.001427, 40.727567], [-74.001607, 40.727625], [-74.0022, 40.72777], [-74.002793, 40.72789], [-74.003386, 40.727985], [-74.00398, 40.728014], [-74.004573, 40.727895], [-74.005068, 40.727567], [-74.005166, 40.727463], [-74.005362, 40.727118], [-74.005411, 40.726669], [-74.005251, 40.72622], [-74.005166, 40.726108], [-74.004889, 40.725771], [-74.004573, 40.725452], [-74.004443, 40.725322], [-74.004065, 40.724873], [-74.00398, 40.724722], [-74.003829, 40.724423], [-74.003714, 40.723974], [-74.003669, 40.723525], [-74.003649, 40.723076], [-74.003613, 40.722627], [-74.003532, 40.722178], [-74.003388, 40.721728], [-74.003386, 40.721725], [-74.003189, 40.721279], [-74.002904, 40.72083], [-74.002793, 40.720678], [-74.002544, 40.720381], [-74.0022, 40.720012], [-74.002111, 40.719932], [-74.001629, 40.719483], [-74.001607, 40.719461], [-74.001014, 40.719055], [-74.000947, 40.719034], [-74.000421, 40.718866]]}}, {"type": "Feature", "properties": {"level": 0.52}, "geometry": {"type": "LineString", "coordinates": [[-74.004573, 40.730704], [-74.004466, 40.730712], [-74.00398, 40.730744], [-74.003386, 40.730882], [-74.002793, 40.731107], [-74.00269, 40.731161], [-74.0022, 40.731382], [-74.001813, 40.73161], [-74.001607, 40.731711], [-74.001014, 40.732045], [-74.000989, 40.732059], [-74.000421, 40.732333], [-73.999956, 40.732508], [-73.999827, 40.732554], [-73.999234, 40.732675], [-73.998641, 40.732694], [-73.998048, 40.732632], [-73.997455, 40.732511], [-73.997442, 40.732508], [-73.996862, 40.73234], [-73.996268, 40.732129], [-73.996072, 40.732059], [-73.995675, 40.731867], [-73.995082, 40.731613], [-73.995071, 40.73161], [-73.994489, 40.731401], [-73.993896, 40.731317], [-73.993303, 40.731329], [-73.992709, 40.731418], [-73.992144, 40.73161], [-73.992116, 40.73162], [-73.991523, 40.732054], [-73.991519, 40.732059], [-73.991258, 40.732508], [-73.991135, 40.732957], [-73.991102, 40.733406], [-73.991099, 40.733856], [-73.991043, 40.734305], [-73.99093, 40.734543], [-73.990816, 40.734754], [-73.990337, 40.735148], [-73.990239, 40.735203], [-73.989744, 40.735389], [-73.98915, 40.735515], [-73.988557, 40.73555], [-73.987964, 40.735512], [-73.987371, 40.735435], [-73.986778, 40.735375], [-73.986185, 40.735415], [-73.985592, 40.735646], [-73.985583, 40.735652], [-73.985017, 40.736101], [-73.984998, 40.736118], [-73.984597, 40.736551], [-73.984405, 40.736778], [-73.984213, 40.737], [-73.983892, 40.737449], [-73.983812, 40.737626], [-73.98367, 40.737898], [-73.983604, 40.738347], [-73.983695, 40.738796], [-73.983812, 40.739059], [-73.983899, 40.739246], [-73.984136, 40.739695], [-73.984316, 40.740144], [-73.984373, 40.740593], [-73.984299, 40.741042], [-73.984146, 40.741491], [-73.983997, 40.74194], [-73.983892, 40.74239], [-73.983812, 40.742795], [-73.983806, 40.742839], [-73.983701, 40.743288], [-73.983552, 40.743737], [-73.983379, 40.744186], [-73.983219, 40.744635], [-73.983219, 40.744637], [-73.983097, 40.745085], [-73.983041, 40.745534], [-73.983049, 40.745983], [-73.9831, 40.746432], [-73.983164, 40.746881], [-73.983166, 40.74733], [-73.982899, 40.747779], [-73.982626, 40.747935], [-73.98204, 40.748229], [-73.982033, 40.748231], [-73.981439, 40.748461], [-73.980846, 40.748664], [-73.980796, 40.748678], [-73.980253, 40.748872], [-73.979664, 40.749127], [-73.97966, 40.74913], [-73.979229, 40.749576], [-73.97909, 40.750025], [-73.979067, 40.750258], [-73.97905, 40.750474], [-73.979062, 40.750924], [-73.979067, 40.75096], [-73.97911, 40.751373], [-73.979179, 40.751822], [-73.979255, 40.752271], [-73.979322, 40.75272], [-73.979361, 40.753169], [-73.979346, 40.753618], [-73.979249, 40.754068], [-73.979067, 40.754482], [-73.979053, 40.754517], [-73.978826, 40.754966], [-73.978526, 40.755415], [-73.978474, 40.755489], [-73.978185, 40.755864], [-73.97788, 40.756191], [-73.977749, 40.756313], [-73.977287, 40.7567], [-73.977198, 40.756763], [-73.976694, 40.75708], [-73.976431, 40.757212], [-73.976101, 40.757343], [-73.975508, 40.757541], [-73.975125, 40.757661], [-73.974915, 40.757716], [-73.974321, 40.757901], [-73.973875, 40.75811], [-73.973728, 40.758174], [-73.973135, 40.758549], [-73.973122, 40.758559], [-73.972542, 40.758969], [-73.972488, 40.759008], [-73.971949, 40.759358], [-73.971771, 40.759458], [-73.971356, 40.759675], [-73.970807, 40.759907], [-73.970762, 40.759926], [-73.970169, 40.760147], [-73.969618, 40.760356], [-73.969576, 40.760376], [-73.968983, 40.760699], [-73.968829, 40.760805], [-73.968469, 40.761254], [-73.96839, 40.761425], [-73.968274, 40.761703], [-73.96806, 40.762152], [-73.967797, 40.762487], [-73.967702, 40.762602], [-73.967203, 40.762975], [-73.967098, 40.763051], [-73.96661, 40.76331], [-73.966268, 40.7635], [-73.966017, 40.763626], [-73.965463, 40.763949], [-73.965424, 40.763973], [-73.964848, 40.764398], [-73.964831, 40.764414], [-73.964416, 40.764847], [-73.964238, 40.765129], [-73.964133, 40.765297], [-73.963978, 40.765746], [-73.963915, 40.766195], [-73.963894, 40.766644], [-73.963848, 40.767093], [-73.963673, 40.767542], [-73.963645, 40.767576], [-73.963051, 40.76798], [-73.963025, 40.767991], [-73.962458, 40.768153], [-73.961865, 40.768295], [-73.961315, 40.768441], [-73.961272, 40.768451], [-73.960679, 40.768651], [-73.960141, 40.76889], [-73.960086, 40.768923], [-73.959509, 40.769339], [-73.959492, 40.769361], [-73.959177, 40.769788], [-73.959083, 40.770237], [-73.959142, 40.770686], [-73.959259, 40.771136], [-73.959316, 40.771585], [-73.959181, 40.772034], [-73.958899, 40.772305], [-73.95854, 40.772483], [-73.958306, 40.772556], [-73.957713, 40.772648], [-73.95712, 40.772689], [-73.956527, 40.772729], [-73.955933, 40.772909], [-73.955906, 40.772932], [-73.955688, 40.773381], [-73.955686, 40.77383], [-73.955717, 40.77428], [-73.9557, 40.774729], [-73.955597, 40.775178], [-73.955395, 40.775627], [-73.95534, 40.775713], [-73.955135, 40.776076], [-73.95485, 40.776525], [-73.954747, 40.776699], [-73.95459, 40.776975], [-73.954385, 40.777424], [-73.954247, 40.777873], [-73.954167, 40.778322], [-73.954154, 40.778451], [-73.954113, 40.778771], [-73.954019, 40.77922], [-73.953825, 40.77967], [-73.953561, 40.780101], [-73.95355, 40.780119], [-73.953337, 40.780568], [-73.953251, 40.781017], [-73.953296, 40.781466], [-73.953461, 40.781915], [-73.953561, 40.782078], [-73.953772, 40.782364], [-73.954154, 40.782745], [-73.954244, 40.782814], [-73.954747, 40.783131], [-73.955141, 40.783263], [-73.95534, 40.783322], [-73.955933, 40.783351], [-73.956527, 40.783273], [-73.956563, 40.783263], [-73.95712, 40.783135], [-73.957713, 40.782947], [-73.958025, 40.782814], [-73.958306, 40.782692], [-73.958861, 40.782364], [-73.958899, 40.782338], [-73.95937, 40.781915], [-73.959492, 40.781784], [-73.959749, 40.781466], [-73.960086, 40.781044], [-73.960106, 40.781017], [-73.960494, 40.780568], [-73.960679, 40.780401], [-73.960981, 40.780119], [-73.961272, 40.779891], [-73.961533, 40.77967], [-73.961865, 40.779399], [-73.962057, 40.77922], [-73.962458, 40.778805], [-73.962487, 40.778771], [-73.962796, 40.778322], [-73.963036, 40.777873], [-73.963051, 40.777838], [-73.963227, 40.777424], [-73.963416, 40.776975], [-73.963644, 40.776525], [-73.963645, 40.776525], [-73.963937, 40.776076], [-73.964238, 40.775716], [-73.964316, 40.775627], [-73.96474, 40.775178], [-73.964831, 40.775084], [-73.965145, 40.774729], [-73.965424, 40.77439], [-73.965507, 40.77428], [-73.965807, 40.77383], [-73.966017, 40.773492], [-73.966083, 40.773381], [-73.966327, 40.772932], [-73.966578, 40.772483], [-73.96661, 40.772425], [-73.966824, 40.772034], [-73.967104, 40.771585], [-73.967203, 40.77145], [-73.967426, 40.771136], [-73.967797, 40.770722], [-73.967827, 40.770686], [-73.968266, 40.770237], [-73.96839, 40.770129], [-73.968726, 40.769788], [-73.968983, 40.769541], [-73.969167, 40.769339], [-73.96957, 40.76889], [-73.969576, 40.768883], [-73.96993, 40.768441], [-73.970169, 40.76815], [-73.970294, 40.767991], [-73.970659, 40.767542], [-73.970762, 40.767419], [-73.971027, 40.767093], [-73.971356, 40.766671], [-73.971376, 40.766644], [-73.971682, 40.766195], [-73.971947, 40.765746], [-73.971949, 40.765743], [-73.972195, 40.765297], [-73.972458, 40.764847], [-73.972542, 40.76472], [-73.972853, 40.764398], [-73.973135, 40.764186], [-73.973728, 40.763986], [-73.974059, 40.763949], [-73.974321, 40.763923], [-73.974915, 40.763916], [-73.975508, 40.763927], [-73.976101, 40.763939], [-73.976608, 40.763949], [-73.976694, 40.763951], [-73.977287, 40.763977], [-73.97788, 40.764065], [-73.978474, 40.764349], [-73.97853, 40.764398], [-73.979067, 40.764786], [-73.979142, 40.764847], [-73.97966, 40.765155], [-73.979951, 40.765297], [-73.980253, 40.765413], [-73.980846, 40.765558], [-73.981439, 40.765624], [-73.982033, 40.765617], [-73.982626, 40.765535], [-73.983219, 40.765348], [-73.983321, 40.765297], [-73.983812, 40.764899], [-73.983859, 40.764847], [-73.984087, 40.764398], [-73.984132, 40.763949], [-73.983983, 40.7635], [-73.983812, 40.763305], [-73.983428, 40.763051], [-73.983219, 40.76298], [-73.982626, 40.7629], [-73.982033, 40.762897], [-73.981439, 40.762928], [-73.980846, 40.762971], [-73.980253, 40.763007], [-73.97966, 40.763005], [-73.979067, 40.762868], [-73.978787, 40.762602], [-73.978536, 40.762152], [-73.978474, 40.761955], [-73.97842, 40.761703], [-73.978357, 40.761254], [-73.978313, 40.760805], [-73.978273, 40.760356], [-73.978231, 40.759907], [-73.97819, 40.759458], [-73.978167, 40.759008], [-73.978195, 40.758559], [-73.978329, 40.75811], [-73.978474, 40.757886], [-73.97866, 40.757661], [-73.979067, 40.757352], [-73.979326, 40.757212], [-73.97966, 40.757053], [-73.980253, 40.756854], [-73.980662, 40.756763], [-73.980846, 40.75671], [-73.981439, 40.75661], [-73.982033, 40.756617], [-73.982449, 40.756763], [-73.982626, 40.756804], [-73.983219, 40.756991], [-73.983812, 40.757132], [-73.984405, 40.75709], [-73.984952, 40.756763], [-73.984998, 40.756557], [-73.985042, 40.756313], [-73.984998, 40.756255], [-73.984427, 40.755864], [-73.984405, 40.755858], [-73.983812, 40.75579], [-73.983219, 40.755758], [-73.982626, 40.755646], [-73.982312, 40.755415], [-73.982033, 40.755097], [-73.981964, 40.754966], [-73.981884, 40.754517], [-73.982033, 40.754134], [-73.982059, 40.754068], [-73.982605, 40.753618], [-73.982626, 40.753609], [-73.983219, 40.753399], [-73.983812, 40.753283], [-73.984405, 40.753254], [-73.984998, 40.753313], [-73.985592, 40.753458], [-73.986031, 40.753618], [-73.986185, 40.753708], [-73.986778, 40.754064], [-73.986784, 40.754068], [-73.987371, 40.754462], [-73.98751, 40.754517], [-73.987964, 40.754672], [-73.988557, 40.75468], [-73.98915, 40.75453], [-73.989174, 40.754517], [-73.989744, 40.754202], [-73.989903, 40.754068], [-73.990313, 40.753618], [-73.990337, 40.753572], [-73.990494, 40.753169], [-73.990499, 40.75272], [-73.990337, 40.752373], [-73.990277, 40.752271], [-73.989775, 40.751822], [-73.989744, 40.751801], [-73.98915, 40.751408], [-73.989099, 40.751373], [-73.988557, 40.751007], [-73.988438, 40.750924], [-73.987964, 40.750559], [-73.987852, 40.750474], [-73.987371, 40.750051], [-73.98734, 40.750025], [-73.986888, 40.749576], [-73.986778, 40.749428], [-73.986498, 40.749127], [-73.986291, 40.748678], [-73.986778, 40.748471], [-73.987371, 40.748437], [-73.987964, 40.748438], [-73.988557, 40.748415], [-73.98915, 40.748354], [-73.989744, 40.748263], [-73.989919, 40.748229], [-73.990337, 40.74815], [-73.99093, 40.748026], [-73.991523, 40.747897], [-73.992036, 40.747779], [-73.992116, 40.747756], [-73.992709, 40.747562], [-73.993303, 40.747337], [-73.993317, 40.74733], [-73.993896, 40.746928], [-73.993954, 40.746881], [-73.994249, 40.746432], [-73.994329, 40.745983], [-73.99423, 40.745534], [-73.994014, 40.745085], [-73.993896, 40.74485], [-73.993691, 40.744635], [-73.993303, 40.744196], [-73.993285, 40.744186], [-73.993093, 40.743737], [-73.993303, 40.74366], [-73.993896, 40.74358], [-73.994489, 40.74343], [-73.994876, 40.743288], [-73.995082, 40.743243], [-73.995675, 40.743088], [-73.996268, 40.742978], [-73.996862, 40.742932], [-73.997455, 40.742934], [-73.998048, 40.742949], [-73.998641, 40.742928], [-73.999065, 40.742839], [-73.999234, 40.742797], [-73.999827, 40.742411], [-73.999846, 40.74239], [-74.000142, 40.74194], [-74.000339, 40.741491], [-74.000421, 40.741215], [-74.000468, 40.741042], [-74.000541, 40.740593], [-74.000558, 40.740144], [-74.000483, 40.739695], [-74.000421, 40.739543], [-74.000069, 40.739246], [-73.999827, 40.739145], [-73.999234, 40.739142], [-73.998641, 40.739233], [-73.998579, 40.739246], [-73.998048, 40.739332], [-73.997455, 40.73941], [-73.996862, 40.739432], [-73.996268, 40.739351], [-73.996039, 40.739246], [-73.995675, 40.738931], [-73.995607, 40.738796], [-73.995559, 40.738347], [-73.995659, 40.737898], [-73.995675, 40.737866], [-73.995993, 40.737449], [-73.996268, 40.737219], [-73.996731, 40.737], [-73.996862, 40.736951], [-73.997455, 40.736838], [-73.998048, 40.736798], [-73.998641, 40.736834], [-73.999234, 40.736982], [-73.999271, 40.737], [-73.999827, 40.737328], [-73.999986, 40.737449], [-74.000421, 40.737833], [-74.000506, 40.737898], [-74.001014, 40.738269], [-74.001296, 40.738347], [-74.001607, 40.73842], [-74.0022, 40.738458], [-74.002793, 40.73844], [-74.003386, 40.738381], [-74.003596, 40.738347], [-74.00398, 40.738299], [-74.004573, 40.738208], [-74.005166, 40.738127], [-74.005759, 40.738086], [-74.006352, 40.738088], [-74.006945, 40.738079], [-74.007538, 40.737969], [-74.007684, 40.737898], [-74.008132, 40.737672], [-74.008361, 40.737449], [-74.008725, 40.737019], [-74.008736, 40.737], [-74.008957, 40.736551], [-74.009133, 40.736101], [-74.009263, 40.735652], [-74.009318, 40.735337], [-74.009338, 40.735203], [-74.00935, 40.734754], [-74.009318, 40.734476], [-74.009296, 40.734305], [-74.009166, 40.733856], [-74.008966, 40.733406], [-74.008725, 40.733005], [-74.008691, 40.732957], [-74.008309, 40.732508], [-74.008132, 40.73233], [-74.007804, 40.732059], [-74.007538, 40.731857], [-74.007137, 40.73161], [-74.006945, 40.73149], [-74.006352, 40.731193], [-74.006266, 40.731161], [-74.005759, 40.730945], [-74.005166, 40.730775], [-74.004625, 40.730712], [-74.004573, 40.730704]]}}, {"type": "Feature", "properties": {"level": 0.52}, "geometry": {"type": "LineString", "coordinates": [[-73.988557, 40.758791], [-73.987964, 40.758601], [-73.987371, 40.758666], [-73.986778, 40.759008], [-73.986778, 40.759008], [-73.986548, 40.759458], [-73.986602, 40.759907], [-73.986778, 40.760067], [-73.987371, 40.760332], [-73.987576, 40.760356], [-73.987964, 40.760382], [-73.988119, 40.760356], [-73.988557, 40.760245], [-73.988965, 40.759907], [-73.989091, 40.759458], [-73.988823, 40.759008], [-73.988557, 40.758791]]}}, {"type": "Feature", "properties": {"level": 0.69}, "geometry": {"type": "LineString", "coordinates": [[-74.000421, 40.720565], [-73.999827, 40.720446], [-73.999234, 40.72047], [-73.998641, 40.720633], [-73.998249, 40.72083], [-73.998048, 40.72096], [-73.997704, 40.721279], [-73.997455, 40.721684], [-73.997431, 40.721728], [-73.997282, 40.722178], [-73.997189, 40.722627], [-73.997118, 40.723076], [-73.997056, 40.723525], [-73.997011, 40.723974], [-73.997018, 40.724423], [-73.997223, 40.724873], [-73.997455, 40.725017], [-73.998048, 40.725251], [-73.998261, 40.725322], [-73.998641, 40.725417], [-73.999234, 40.725573], [-73.999827, 40.725728], [-74.000016, 40.725771], [-74.000421, 40.725871], [-74.001014, 40.725977], [-74.001607, 40.726028], [-74.0022, 40.725959], [-74.002461, 40.725771], [-74.00252, 40.725322], [-74.002485, 40.724873], [-74.002462, 40.724423], [-74.002461, 40.723974], [-74.002466, 40.723525], [-74.002454, 40.723076], [-74.002393, 40.722627], [-74.002253, 40.722178], [-74.0022, 40.722076], [-74.001999, 40.721728], [-74.001607, 40.721281], [-74.001605, 40.721279], [-74.001014, 40.720842], [-74.000989, 40.72083], [-74.000421, 40.720565]]}}, {"type": "Feature", "properties": {"level": 0.69}, "geometry": {"type": "LineString", "coordinates": [[-74.006352, 40.732507], [-74.005759, 40.732365], [-74.005166, 40.73233], [-74.004573, 40.732384], [-74.00398, 40.732493], [-74.003913, 40.732508], [-74.003386, 40.732628], [-74.002793, 40.732781], [-74.002233, 40.732957], [-74.0022, 40.732968], [-74.001607, 40.733229], [-74.001257, 40.733406], [-74.001014, 40.733573], [-74.000593, 40.733856], [-74.000421, 40.73409], [-74.000206, 40.734305], [-74.000193, 40.734754], [-74.000421, 40.735195], [-74.000423, 40.735203], [-74.000654, 40.735652], [-74.000965, 40.736101], [-74.001014, 40.736155], [-74.001345, 40.736551], [-74.001607, 40.736777], [-74.001935, 40.737], [-74.0022, 40.737138], [-74.002793, 40.7373], [-74.003386, 40.737327], [-74.00398, 40.737258], [-74.004573, 40.737129], [-74.00508, 40.737], [-74.005166, 40.736975], [-74.005759, 40.736828], [-74.006352, 40.736703], [-74.006945, 40.736557], [-74.006961, 40.736551], [-74.007538, 40.736267], [-74.007722, 40.736101], [-74.008078, 40.735652], [-74.008132, 40.735534], [-74.008235, 40.735203], [-74.00827, 40.734754], [-74.008198, 40.734305], [-74.008132, 40.73413], [-74.007998, 40.733856], [-74.007678, 40.733406], [-74.007538, 40.733254], [-74.007178, 40.732957], [-74.006945, 40.732793], [-74.006354, 40.732508], [-74.006352, 40.732507]]}}, {"type": "Feature", "properties": {"level": 0.69}, "geometry": {"type": "LineString", "coordinates": [[-73.997455, 40.73385], [-73.996862, 40.73372], [-73.996268, 40.733659], [-73.995675, 40.733677], [-73.995082, 40.733781], [-73.994837, 40.733856], [-73.994489, 40.734035], [-73.994131, 40.734305], [-73.993896, 40.734546], [-73.99372, 40.734754], [-73.993303, 40.735072], [-73.993143, 40.735203], [-73.992709, 40.735395], [-73.992172, 40.735652], [-73.992116, 40.73567], [-73.991523, 40.735895], [-73.990978, 40.736101], [-73.99093, 40.736117], [-73.990337, 40.736302], [-73.989744, 40.736462], [-73.989345, 40.736551], [-73.98915, 40.736599], [-73.988557, 40.736717], [-73.987964, 40.736818], [-73.987371, 40.73692], [-73.987045, 40.737], [-73.986778, 40.73711], [-73.986292, 40.737449], [-73.986185, 40.737682], [-73.98611, 40.737898], [-73.986185, 40.738141], [-73.986265, 40.738347], [-73.986778, 40.738767], [-73.986814, 40.738796], [-73.987371, 40.739074], [-73.987652, 40.739246], [-73.987964, 40.739393], [-73.98846, 40.739695], [-73.988557, 40.739749], [-73.98915, 40.740137], [-73.98916, 40.740144], [-73.989744, 40.740548], [-73.989828, 40.740593], [-73.990337, 40.740908], [-73.990832, 40.741042], [-73.99093, 40.741073], [-73.991523, 40.741056], [-73.991571, 40.741042], [-73.992116, 40.740909], [-73.992709, 40.740643], [-73.992795, 40.740593], [-73.993303, 40.740223], [-73.993385, 40.740144], [-73.993719, 40.739695], [-73.993896, 40.739305], [-73.993919, 40.739246], [-73.99407, 40.738796], [-73.994192, 40.738347], [-73.994307, 40.737898], [-73.994427, 40.737449], [-73.994489, 40.737232], [-73.99457, 40.737], [-73.994764, 40.736551], [-73.995082, 40.736134], [-73.995124, 40.736101], [-73.995675, 40.735782], [-73.996074, 40.735652], [-73.996268, 40.735585], [-73.996862, 40.735387], [-73.997368, 40.735203], [-73.997455, 40.735151], [-73.998048, 40.734758], [-73.998055, 40.734754], [-73.998179, 40.734305], [-73.998048, 40.73422], [-73.997475, 40.733856], [-73.997455, 40.73385]]}}, {"type": "Feature", "properties": {"level": 0.69}, "geometry": {"type": "LineString", "coordinates": [[-73.988557, 40.743268], [-73.987964, 40.74321], [-73.987371, 40.743262], [-73.987256, 40.743288], [-73.986778, 40.743412], [-73.986185, 40.743651], [-73.986036, 40.743737], [-73.985592, 40.744022], [-73.985406, 40.744186], [-73.984998, 40.74463], [-73.984994, 40.744635], [-73.984804, 40.745085], [-73.984786, 40.745534], [-73.984996, 40.745983], [-73.984998, 40.745985], [-73.985592, 40.746325], [-73.986101, 40.746432], [-73.986185, 40.746446], [-73.986778, 40.746444], [-73.986874, 40.746432], [-73.987371, 40.74635], [-73.987964, 40.746161], [-73.988337, 40.745983], [-73.988557, 40.745816], [-73.988837, 40.745534], [-73.989074, 40.745085], [-73.98915, 40.744822], [-73.989195, 40.744635], [-73.989226, 40.744186], [-73.98915, 40.743768], [-73.989142, 40.743737], [-73.988612, 40.743288], [-73.988557, 40.743268]]}}, {"type": "Feature", "properties": {"level": 0.69}, "geometry": {"type": "LineString", "coordinates": [[-73.984405, 40.75042], [-73.983812, 40.750198], [-73.983219, 40.750192], [-73.982626, 40.750394], [-73.98249, 40.750474], [-73.982033, 40.750877], [-73.981989, 40.750924], [-73.981827, 40.751373], [-73.982033, 40.751688], [-73.982471, 40.751822], [-73.982626, 40.751835], [-73.982814, 40.751822], [-73.983219, 40.751781], [-73.983812, 40.751651], [-73.984405, 40.751461], [-73.984592, 40.751373], [-73.984801, 40.750924], [-73.984486, 40.750474], [-73.984405, 40.75042]]}}, {"type": "Feature", "properties": {"level": 0.69}, "geometry": {"type": "LineString", "coordinates": [[-73.976101, 40.759182], [-73.975508, 40.759111], [-73.974915, 40.759199], [-73.974321, 40.759421], [-73.974256, 40.759458], [-73.973728, 40.759803], [-73.973592, 40.759907], [-73.973141, 40.760356], [-73.973135, 40.760365], [-73.972802, 40.760805], [-73.972614, 40.761254], [-73.972575, 40.761703], [-73.972705, 40.762152], [-73.973135, 40.762537], [-73.973212, 40.762602], [-73.973728, 40.762807], [-73.974321, 40.762975], [-73.974784, 40.763051], [-73.974915, 40.763066], [-73.975508, 40.763075], [-73.975703, 40.763051], [-73.976101, 40.762984], [-73.976694, 40.762712], [-73.976829, 40.762602], [-73.977116, 40.762152], [-73.977233, 40.761703], [-73.977262, 40.761254], [-73.977227, 40.760805], [-73.977124, 40.760356], [-73.976937, 40.759907], [-73.976694, 40.759544], [-73.976586, 40.759458], [-73.976101, 40.759182]]}}, {"type": "Feature", "properties": {"level": 0.69}, "geometry": {"type": "LineString", "coordinates": [[-73.970762, 40.763402], [-73.970169, 40.76336], [-73.969648, 40.7635], [-73.969576, 40.763514], [-73.968983, 40.76374], [-73.968534, 40.763949], [-73.96839, 40.764011], [-73.967797, 40.764291], [-73.967578, 40.764398], [-73.967203, 40.764602], [-73.966796, 40.764847], [-73.96661, 40.764999], [-73.966295, 40.765297], [-73.966036, 40.765746], [-73.966017, 40.765827], [-73.965939, 40.766195], [-73.965936, 40.766644], [-73.965972, 40.767093], [-73.966011, 40.767542], [-73.966017, 40.767673], [-73.966034, 40.767991], [-73.966034, 40.768441], [-73.966018, 40.76889], [-73.966017, 40.768922], [-73.966011, 40.769339], [-73.966017, 40.769389], [-73.96661, 40.769783], [-73.967203, 40.769592], [-73.967701, 40.769339], [-73.967797, 40.7693], [-73.968387, 40.76889], [-73.96839, 40.768888], [-73.968861, 40.768441], [-73.968983, 40.768333], [-73.96928, 40.767991], [-73.969576, 40.767679], [-73.969688, 40.767542], [-73.970072, 40.767093], [-73.970169, 40.766981], [-73.970428, 40.766644], [-73.970753, 40.766195], [-73.970762, 40.766178], [-73.970982, 40.765746], [-73.97115, 40.765297], [-73.971256, 40.764847], [-73.971294, 40.764398], [-73.971229, 40.763949], [-73.97091, 40.7635], [-73.970762, 40.763402]]}}, {"type": "Feature", "properties": {"level": 0.69}, "geometry": {"type": "LineString", "coordinates": [[-73.965424, 40.770638], [-73.964831, 40.77038], [-73.964238, 40.770367], [-73.963645, 40.770381], [-73.963051, 40.770452], [-73.962495, 40.770686], [-73.962458, 40.770715], [-73.962215, 40.771136], [-73.962083, 40.771585], [-73.961973, 40.772034], [-73.961865, 40.7724], [-73.961845, 40.772483], [-73.961676, 40.772932], [-73.961382, 40.773381], [-73.961272, 40.773486], [-73.960768, 40.77383], [-73.960679, 40.773872], [-73.960086, 40.774091], [-73.959509, 40.77428], [-73.959492, 40.774285], [-73.958899, 40.774534], [-73.958575, 40.774729], [-73.958306, 40.774934], [-73.958059, 40.775178], [-73.957713, 40.77556], [-73.957658, 40.775627], [-73.95727, 40.776076], [-73.95712, 40.776253], [-73.956893, 40.776525], [-73.956577, 40.776975], [-73.956527, 40.777084], [-73.956376, 40.777424], [-73.956299, 40.777873], [-73.956325, 40.778322], [-73.956406, 40.778771], [-73.956484, 40.77922], [-73.956509, 40.77967], [-73.956463, 40.780119], [-73.956386, 40.780568], [-73.956384, 40.781017], [-73.956527, 40.781279], [-73.956802, 40.781466], [-73.95712, 40.781548], [-73.9576, 40.781466], [-73.957713, 40.781439], [-73.958302, 40.781017], [-73.958306, 40.781014], [-73.958689, 40.780568], [-73.958899, 40.780396], [-73.959198, 40.780119], [-73.959492, 40.779939], [-73.959905, 40.77967], [-73.960086, 40.779578], [-73.960679, 40.779231], [-73.960694, 40.77922], [-73.961272, 40.77882], [-73.961328, 40.778771], [-73.961778, 40.778322], [-73.961865, 40.778211], [-73.962076, 40.777873], [-73.962283, 40.777424], [-73.96245, 40.776975], [-73.962458, 40.776949], [-73.962585, 40.776525], [-73.962741, 40.776076], [-73.962955, 40.775627], [-73.963051, 40.775468], [-73.963244, 40.775178], [-73.963645, 40.774747], [-73.963661, 40.774729], [-73.964073, 40.77428], [-73.964238, 40.774105], [-73.964439, 40.77383], [-73.964734, 40.773381], [-73.964831, 40.773206], [-73.96495, 40.772932], [-73.96511, 40.772483], [-73.965248, 40.772034], [-73.965366, 40.771585], [-73.965424, 40.77125], [-73.965443, 40.771136], [-73.96544, 40.770686], [-73.965424, 40.770638]]}}]}