{"type": "FeatureCollection", "properties": {"layer": "loud_permitted_events", "scope": "Full Street Closure,Pedestrian Plaza", "note": "plot directly; time-filter by start/end at serve time"}, "features": [{"type": "Feature", "properties": {"name": "Stone Street Pedestrian Mall", "type": "Street Event", "closure": "Full Street Closure", "start": "2026-03-12 11:00:00", "end": "2026-11-08 22:00:00"}, "geometry": {"type": "Point", "coordinates": [-74.01019, 40.704653]}}, {"type": "Feature", "properties": {"name": "Movies on the Cobbles No. 10", "type": "Plaza Partner Event", "closure": "Pedestrian Plaza", "start": "2026-06-01 19:00:00", "end": "2026-06-01 22:00:00"}, "geometry": {"type": "Point", "coordinates": [-74.006177, 40.739847]}}, {"type": "Feature", "properties": {"name": "Morgan Stanley Food Drive", "type": "Plaza Partner Event", "closure": "Pedestrian Plaza", "start": "2026-06-02 08:00:00", "end": "2026-06-02 17:00:00"}, "geometry": {"type": "Point", "coordinates": [-73.985972, 40.75701]}}, {"type": "Feature", "properties": {"name": "E 113th PS 102 Open Streets Event", "type": "Street Event", "closure": "Full Street Closure", "start": "2026-06-24 09:00:00", "end": "2026-06-24 15:00:00"}, "geometry": {"type": "Point", "coordinates": [-73.939186, 40.795075]}}, {"type": "Feature", "properties": {"name": "PERSHING SQUARE SUMMER SOUNDS CONCERT SERIES 2026", "type": "Plaza Partner Event", "closure": "Pedestrian Plaza", "start": "2026-06-27 11:30:00", "end": "2026-06-27 15:30:00"}, "geometry": {"type": "Point", "coordinates": [-73.977917, 40.751792]}}, {"type": "Feature", "properties": {"name": "TSQ LIVE: 45/46 Plaza Programming", "type": "Plaza Partner Event", "closure": "Pedestrian Plaza", "start": "2026-06-30 12:00:00", "end": "2026-06-30 21:00:00"}, "geometry": {"type": "Point", "coordinates": [-73.985972, 40.75701]}}, {"type": "Feature", "properties": {"name": "45th Street Fair", "type": "Single Block Festival", "closure": "Full Street Closure", "start": "2026-06-03 10:00:00", "end": "2026-06-03 18:00:00"}, "geometry": {"type": "Point", "coordinates": [-73.973855, 40.753036]}}, {"type": "Feature", "properties": {"name": "2026 Knicks Round 4: Game 1 - Watch Party -- DATE TBD", "type": "Plaza Event", "closure": "Pedestrian Plaza", "start": "2026-06-03 16:30:00", "end": "2026-06-03 22:00:00"}, "geometry": {"type": "Point", "coordinates": [-73.992521, 40.750937]}}, {"type": "Feature", "properties": {"name": "Academy For Software Engineering Street Fair", "type": "Street Event", "closure": "Full Street Closure", "start": "2026-06-03 17:00:00", "end": "2026-06-03 19:30:00"}, "geometry": {"type": "Point", "coordinates": [-73.987022, 40.734961]}}, {"type": "Feature", "properties": {"name": "TSX Viewing Zone", "type": "Plaza Event", "closure": "Pedestrian Plaza", "start": "2026-06-04 00:01:00", "end": "2026-06-04 23:59:00"}, "geometry": {"type": "Point", "coordinates": [-73.985972, 40.75701]}}, {"type": "Feature", "properties": {"name": "HHFM East Harlem Market", "type": "Farmers Market", "closure": "Full Street Closure", "start": "2026-06-25 08:00:00", "end": "2026-06-25 15:00:00"}, "geometry": {"type": "Point", "coordinates": [-73.944518, 40.789784]}}, {"type": "Feature", "properties": {"name": "COMMUNITY BOARD 6 BLOCK PARTY", "type": "Single Block Festival", "closure": "Full Street Closure", "start": "2026-06-04 10:00:00", "end": "2026-06-04 18:00:00"}, "geometry": {"type": "Point", "coordinates": [-73.975747, 40.750451]}}, {"type": "Feature", "properties": {"name": "New Beginnings Bridging", "type": "Parade", "closure": "Full Street Closure", "start": "2026-06-04 12:00:00", "end": "2026-06-04 17:00:00"}, "geometry": {"type": "Point", "coordinates": [-73.997021, 40.706218]}}, {"type": "Feature", "properties": {"name": "East 4th Street Open Street", "type": "Open Street Partner Event", "closure": "Full Street Closure", "start": "2026-06-25 16:00:00", "end": "2026-06-25 21:00:00"}, "geometry": {"type": "Point", "coordinates": [-73.99049, 40.726638]}}, {"type": "Feature", "properties": {"name": "Public Theater Mobile Unit - Astor Place", "type": "Plaza Event", "closure": "Pedestrian Plaza", "start": "2026-06-04 18:30:00", "end": "2026-06-04 20:00:00"}, "geometry": {"type": "Point", "coordinates": [-73.990926, 40.72997]}}, {"type": "Feature", "properties": {"name": "SEPHORA POP UP", "type": "Plaza Event", "closure": "Pedestrian Plaza", "start": "2026-06-05 09:00:00", "end": "2026-06-06 19:00:00"}, "geometry": {"type": "Point", "coordinates": [-74.006177, 40.739847]}}, {"type": "Feature", "properties": {"name": "Final Leg Torch Run", "type": "Parade", "closure": "Full Street Closure", "start": "2026-06-05 10:00:00", "end": "2026-06-05 12:00:00"}, "geometry": {"type": "Point", "coordinates": [-73.965363, 40.782773]}}, {"type": "Feature", "properties": {"name": "Brick Church School Fair", "type": "Street Event", "closure": "Full Street Closure", "start": "2026-06-05 12:00:00", "end": "2026-06-05 16:00:00"}, "geometry": {"type": "Point", "coordinates": [-73.955226, 40.784329]}}, {"type": "Feature", "properties": {"name": "Annual Gun Violence Awareness Day Block Party/Street Event", "type": "Street Event", "closure": "Full Street Closure", "start": "2026-06-05 15:00:00", "end": "2026-06-05 18:00:00"}, "geometry": {"type": "Point", "coordinates": [-73.938959, 40.800845]}}, {"type": "Feature", "properties": {"name": "Red White Blue Block Party", "type": "Street Event", "closure": "Full Street Closure", "start": "2026-06-05 15:30:00", "end": "2026-06-05 18:00:00"}, "geometry": {"type": "Point", "coordinates": [-73.958972, 40.779207]}}, {"type": "Feature", "properties": {"name": "2026 Knicks Round 4: Game 2 - Watch Party -- June 5, 2026", "type": "Plaza Event", "closure": "Pedestrian Plaza", "start": "2026-06-05 16:30:00", "end": "2026-06-05 22:00:00"}, "geometry": {"type": "Point", "coordinates": [-73.992521, 40.750937]}}, {"type": "Feature", "properties": {"name": "2026 Mastercard New York Mini 10K", "type": "Athletic Race / Tour", "closure": "Full Street Closure", "start": "2026-06-06 08:00:00", "end": "2026-06-06 10:30:00"}, "geometry": {"type": "Point", "coordinates": [-73.96679, 40.788802]}}, {"type": "Feature", "properties": {"name": "Witness for Life", "type": "Religious Event", "closure": "Full Street Closure", "start": "2026-06-06 08:45:00", "end": "2026-06-06 11:00:00"}, "geometry": {"type": "Point", "coordinates": [-73.974762, 40.751791]}}, {"type": "Feature", "properties": {"name": "St Nicholas Avenue Fair", "type": "Street Festival", "closure": "Full Street Closure", "start": "2026-06-06 10:00:00", "end": "2026-06-06 18:00:00"}, "geometry": {"type": "Point", "coordinates": [-73.932135, 40.851503]}}, {"type": "Feature", "properties": {"name": "TURTLE BAY FESTIVAL", "type": "Street Festival", "closure": "Full Street Closure", "start": "2026-06-06 10:00:00", "end": "2026-06-06 18:00:00"}, "geometry": {"type": "Point", "coordinates": [-73.973294, 40.755221]}}, {"type": "Feature", "properties": {"name": "W83rd St. Annual flea market", "type": "Sidewalk Sale", "closure": "Full Street Closure", "start": "2026-06-06 10:00:00", "end": "2026-06-06 17:30:00"}, "geometry": {"type": "Point", "coordinates": [-73.97868, 40.78668]}}, {"type": "Feature", "properties": {"name": "Centro Civico Cultural Dominicano 22nd Annual Arts and Crafts and Resource fair", "type": "Street Event", "closure": "Full Street Closure", "start": "2026-06-06 10:00:00", "end": "2026-06-06 14:00:00"}, "geometry": {"type": "Point", "coordinates": [-73.951239, 40.826766]}}, {"type": "Feature", "properties": {"name": "8th Avenue Midtown Fair", "type": "Street Festival", "closure": "Full Street Closure", "start": "2026-06-06 10:00:00", "end": "2026-06-06 18:00:00"}, "geometry": {"type": "Point", "coordinates": [-73.986806, 40.761337]}}, {"type": "Feature", "properties": {"name": "Love Your Block 2026", "type": "Clean-Up", "closure": "Full Street Closure", "start": "2026-06-06 11:00:00", "end": "2026-06-06 14:00:00"}, "geometry": {"type": "Point", "coordinates": [-73.94736, 40.805217]}}, {"type": "Feature", "properties": {"name": "Mount Sinai Behavioral Health Center Health Fair", "type": "Health Fair", "closure": "Full Street Closure", "start": "2026-06-06 11:00:00", "end": "2026-06-06 14:00:00"}, "geometry": {"type": "Point", "coordinates": [-73.990632, 40.72077]}}, {"type": "Feature", "properties": {"name": "Cerebral Palsy CP Community Day 2026", "type": "Plaza Partner Event", "closure": "Pedestrian Plaza", "start": "2026-06-06 11:00:00", "end": "2026-06-06 14:00:00"}, "geometry": {"type": "Point", "coordinates": [-73.942618, 40.84268]}}, {"type": "Feature", "properties": {"name": "CHAH Spring Festival", "type": "Street Event", "closure": "Full Street Closure", "start": "2026-06-06 11:00:00", "end": "2026-06-06 15:00:00"}, "geometry": {"type": "Point", "coordinates": [-73.942998, 40.834085]}}, {"type": "Feature", "properties": {"name": "LOVE ON THE BLOCK 2026 - 115th  Lenox", "type": "Street Event", "closure": "Full Street Closure", "start": "2026-06-06 12:00:00", "end": "2026-06-06 17:00:00"}, "geometry": {"type": "Point", "coordinates": [-73.948577, 40.800659]}}, {"type": "Feature", "properties": {"name": "La Nueva Yo - Dominicans Mothers Day Celebration", "type": "Plaza Partner Event", "closure": "Pedestrian Plaza", "start": "2026-06-06 12:00:00", "end": "2026-06-06 18:00:00"}, "geometry": {"type": "Point", "coordinates": [-73.927659, 40.865854]}}, {"type": "Feature", "properties": {"name": "LES 10th Anniversary Block Party Celebration", "type": "Street Event", "closure": "Full Street Closure", "start": "2026-06-06 12:00:00", "end": "2026-06-06 17:00:00"}, "geometry": {"type": "Point", "coordinates": [-73.944106, 40.812152]}}, {"type": "Feature", "properties": {"name": "Brunch Pitch Entrepreneurs", "type": "Plaza Event", "closure": "Pedestrian Plaza", "start": "2026-06-06 12:00:00", "end": "2026-06-06 15:00:00"}, "geometry": {"type": "Point", "coordinates": [-73.985972, 40.75701]}}, {"type": "Feature", "properties": {"name": "La Parada y Festival de Lower East Side", "type": "Parade", "closure": "Full Street Closure", "start": "2026-06-06 16:00:00", "end": "2026-06-06 21:00:00"}, "geometry": {"type": "Point", "coordinates": [-73.979719, 40.718104]}}, {"type": "Feature", "properties": {"name": "Kishan  Camilas Wedding Baraat", "type": "Religious Event", "closure": "Full Street Closure", "start": "2026-06-06 16:00:00", "end": "2026-06-06 17:00:00"}, "geometry": {"type": "Point", "coordinates": [-73.987612, 40.751817]}}, {"type": "Feature", "properties": {"name": "2K for 2K", "type": "Athletic Race / Tour", "closure": "Full Street Closure", "start": "2026-06-07 08:00:00", "end": "2026-06-07 10:00:00"}, "geometry": {"type": "Point", "coordinates": [-73.934017, 40.859405]}}, {"type": "Feature", "properties": {"name": "NEW YORK CITY EXPO", "type": "Street Festival", "closure": "Full Street Closure", "start": "2026-06-07 10:00:00", "end": "2026-06-07 18:00:00"}, "geometry": {"type": "Point", "coordinates": [-73.980638, 40.742288]}}, {"type": "Feature", "properties": {"name": "Corpus Christi Procession", "type": "Religious Event", "closure": "Full Street Closure", "start": "2026-06-07 10:00:00", "end": "2026-06-07 14:00:00"}, "geometry": {"type": "Point", "coordinates": [-73.998934, 40.714625]}}, {"type": "Feature", "properties": {"name": "Philippine Independence Day Celebration", "type": "Street Event", "closure": "Full Street Closure", "start": "2026-06-07 10:00:00", "end": "2026-06-07 19:00:00"}, "geometry": {"type": "Point", "coordinates": [-73.987052, 40.742158]}}, {"type": "Feature", "properties": {"name": "Philippine Independence Day Celebration", "type": "Single Block Festival", "closure": "Full Street Closure", "start": "2026-06-07 10:00:00", "end": "2026-06-07 19:00:00"}, "geometry": {"type": "Point", "coordinates": [-73.98579, 40.742434]}}, {"type": "Feature", "properties": {"name": "Broadway Summer Fair", "type": "Street Festival", "closure": "Full Street Closure", "start": "2026-06-07 10:00:00", "end": "2026-06-07 18:00:00"}, "geometry": {"type": "Point", "coordinates": [-73.98213, 40.775914]}}, {"type": "Feature", "properties": {"name": "Sutton Place Synagogue Community Day", "type": "Street Event", "closure": "Full Street Closure", "start": "2026-06-07 11:00:00", "end": "2026-06-07 14:00:00"}, "geometry": {"type": "Point", "coordinates": [-73.969192, 40.755981]}}, {"type": "Feature", "properties": {"name": "Corpus Christi", "type": "Religious Event", "closure": "Full Street Closure", "start": "2026-06-07 11:30:00", "end": "2026-06-07 12:30:00"}, "geometry": {"type": "Point", "coordinates": [-73.94194, 40.799648]}}, {"type": "Feature", "properties": {"name": "Epiphany School Fair 2026", "type": "Street Event", "closure": "Full Street Closure", "start": "2026-06-07 12:00:00", "end": "2026-06-07 16:00:00"}, "geometry": {"type": "Point", "coordinates": [-73.982517, 40.737695]}}, {"type": "Feature", "properties": {"name": "WSCAH Rocks the Block", "type": "Street Event", "closure": "Full Street Closure", "start": "2026-06-07 12:00:00", "end": "2026-06-07 16:00:00"}, "geometry": {"type": "Point", "coordinates": [-73.97911, 40.789419]}}, {"type": "Feature", "properties": {"name": "Philippine Independence Day Celebration", "type": "Parade", "closure": "Full Street Closure", "start": "2026-06-07 12:00:00", "end": "2026-06-07 19:00:00"}, "geometry": {"type": "Point", "coordinates": [-73.98112, 40.750281]}}, {"type": "Feature", "properties": {"name": "The Happening", "type": "Street Event", "closure": "Full Street Closure", "start": "2026-06-07 12:00:00", "end": "2026-06-07 17:00:00"}, "geometry": {"type": "Point", "coordinates": [-74.00394, 40.718446]}}, {"type": "Feature", "properties": {"name": "Corpus Christi Procession", "type": "Religious Event", "closure": "Full Street Closure", "start": "2026-06-07 12:00:00", "end": "2026-06-07 14:30:00"}, "geometry": {"type": "Point", "coordinates": [-73.955363, 40.782712]}}, {"type": "Feature", "properties": {"name": "El Barrio Parade", "type": "Parade", "closure": "Full Street Closure", "start": "2026-06-07 13:00:00", "end": "2026-06-07 14:00:00"}, "geometry": {"type": "Point", "coordinates": [-73.946814, 40.786652]}}, {"type": "Feature", "properties": {"name": "2026 Cornelia Street Block Party", "type": "Block Party", "closure": "Full Street Closure", "start": "2026-06-07 14:00:00", "end": "2026-06-07 20:00:00"}, "geometry": {"type": "Point", "coordinates": [-74.002045, 40.731468]}}, {"type": "Feature", "properties": {"name": "Corpus Christi procession", "type": "Religious Event", "closure": "Full Street Closure", "start": "2026-06-07 15:00:00", "end": "2026-06-07 18:00:00"}, "geometry": {"type": "Point", "coordinates": [-73.936806, 40.845111]}}, {"type": "Feature", "properties": {"name": "Soccer Streets Event W 160th St PS 4", "type": "Street Event", "closure": "Full Street Closure", "start": "2026-06-08 10:00:00", "end": "2026-06-08 13:00:00"}, "geometry": {"type": "Point", "coordinates": [-73.942087, 40.835334]}}, {"type": "Feature", "properties": {"name": "Fanduel NY KNICKS championship series promotion", "type": "Plaza Event", "closure": "Pedestrian Plaza", "start": "2026-06-08 14:00:00", "end": "2026-06-08 22:00:00"}, "geometry": {"type": "Point", "coordinates": [-73.985972, 40.75701]}}, {"type": "Feature", "properties": {"name": "Chanel Artists Awards Dinner", "type": "Street Event", "closure": "Full Street Closure", "start": "2026-06-08 19:00:00", "end": "2026-06-08 23:00:00"}, "geometry": {"type": "Point", "coordinates": [-74.009469, 40.71937]}}, {"type": "Feature", "properties": {"name": "Runner Installation", "type": "Plaza Partner Event", "closure": "Pedestrian Plaza", "start": "2026-06-09 00:01:00", "end": "2026-08-30 23:59:00"}, "geometry": {"type": "Point", "coordinates": [-74.005525, 40.74057]}}, {"type": "Feature", "properties": {"name": "Pura and Calm Installation", "type": "Plaza Event", "closure": "Pedestrian Plaza", "start": "2026-06-09 10:00:00", "end": "2026-06-09 23:30:00"}, "geometry": {"type": "Point", "coordinates": [-74.006177, 40.739847]}}, {"type": "Feature", "properties": {"name": "Senior Class celebration", "type": "Street Event", "closure": "Full Street Closure", "start": "2026-06-09 15:00:00", "end": "2026-06-09 19:00:00"}, "geometry": {"type": "Point", "coordinates": [-73.957283, 40.784392]}}, {"type": "Feature", "properties": {"name": "Fox World Cup Watcher", "type": "Plaza Partner Event", "closure": "Pedestrian Plaza", "start": "2026-06-10 08:00:00", "end": "2026-07-19 23:00:00"}, "geometry": {"type": "Point", "coordinates": [-73.985972, 40.75701]}}, {"type": "Feature", "properties": {"name": "40th Street Fair", "type": "Single Block Festival", "closure": "Full Street Closure", "start": "2026-06-10 10:00:00", "end": "2026-06-10 18:00:00"}, "geometry": {"type": "Point", "coordinates": [-73.979415, 40.751198]}}, {"type": "Feature", "properties": {"name": "EM Stationary protest Event", "type": "Stationary Demonstration", "closure": "Pedestrian Plaza", "start": "2026-06-11 07:00:00", "end": "2026-06-11 19:00:00"}, "geometry": {"type": "Point", "coordinates": [-73.985972, 40.75701]}}, {"type": "Feature", "properties": {"name": "COMMUNITY BLOCK PARTY", "type": "Single Block Festival", "closure": "Full Street Closure", "start": "2026-06-11 10:00:00", "end": "2026-06-11 18:00:00"}, "geometry": {"type": "Point", "coordinates": [-74.008459, 40.712897]}}, {"type": "Feature", "properties": {"name": "Hope Through Unity: Un Sancocho", "type": "Street Event", "closure": "Full Street Closure", "start": "2026-06-11 10:00:00", "end": "2026-06-11 16:00:00"}, "geometry": {"type": "Point", "coordinates": [-73.92786, 40.86045]}}, {"type": "Feature", "properties": {"name": "World Cup Celebration", "type": "Street Event", "closure": "Full Street Closure", "start": "2026-06-26 14:00:00", "end": "2026-06-26 18:00:00"}, "geometry": {"type": "Point", "coordinates": [-73.942934, 40.798285]}}, {"type": "Feature", "properties": {"name": "Take Steps Walk", "type": "Parade", "closure": "Full Street Closure", "start": "2026-06-11 19:00:00", "end": "2026-06-11 20:30:00"}, "geometry": {"type": "Point", "coordinates": [-74.003496, 40.706023]}}, {"type": "Feature", "properties": {"name": "Public Art Unveiling", "type": "Plaza Partner Event", "closure": "Pedestrian Plaza", "start": "2026-06-12 10:00:00", "end": "2026-06-12 11:00:00"}, "geometry": {"type": "Point", "coordinates": [-73.992255, 40.734529]}}, {"type": "Feature", "properties": {"name": "Health Safety and Wellness Fair", "type": "Health Fair", "closure": "Full Street Closure", "start": "2026-06-12 11:15:00", "end": "2026-06-12 15:00:00"}, "geometry": {"type": "Point", "coordinates": [-73.939428, 40.839002]}}, {"type": "Feature", "properties": {"name": "Flag Day Parade", "type": "Parade", "closure": "Full Street Closure", "start": "2026-06-12 12:00:00", "end": "2026-06-12 13:00:00"}, "geometry": {"type": "Point", "coordinates": [-74.007935, 40.712294]}}, {"type": "Feature", "properties": {"name": "Shabbat Service", "type": "Religious Event", "closure": "Full Street Closure", "start": "2026-06-12 17:00:00", "end": "2026-06-12 19:00:00"}, "geometry": {"type": "Point", "coordinates": [-73.961593, 40.772719]}}, {"type": "Feature", "properties": {"name": "Festival of Saint Anthony", "type": "Single Block Festival", "closure": "Full Street Closure", "start": "2026-06-13 10:00:00", "end": "2026-06-13 18:00:00"}, "geometry": {"type": "Point", "coordinates": [-74.001856, 40.727107]}}, {"type": "Feature", "properties": {"name": "Bleecker Street Fair", "type": "Street Festival", "closure": "Full Street Closure", "start": "2026-06-13 10:00:00", "end": "2026-06-13 18:00:00"}, "geometry": {"type": "Point", "coordinates": [-73.99901, 40.728201]}}, {"type": "Feature", "properties": {"name": "ROMANIA DAY FESTIVAL", "type": "Street Festival", "closure": "Full Street Closure", "start": "2026-06-13 10:00:00", "end": "2026-06-13 18:00:00"}, "geometry": {"type": "Point", "coordinates": [-74.01242, 40.706905]}}, {"type": "Feature", "properties": {"name": "Schomburg Center Literary Festival Centennial", "type": "Single Block Festival", "closure": "Full Street Closure", "start": "2026-06-13 11:00:00", "end": "2026-06-13 19:00:00"}, "geometry": {"type": "Point", "coordinates": [-73.942279, 40.81471]}}, {"type": "Feature", "properties": {"name": "Immigrants Parade - International Cultures Celebration", "type": "Parade", "closure": "Full Street Closure", "start": "2026-06-13 11:00:00", "end": "2026-06-13 16:00:00"}, "geometry": {"type": "Point", "coordinates": [-73.981555, 40.755462]}}, {"type": "Feature", "properties": {"name": "Community Solutions Forum", "type": "Street Event", "closure": "Full Street Closure", "start": "2026-06-13 12:00:00", "end": "2026-06-13 17:00:00"}, "geometry": {"type": "Point", "coordinates": [-73.965907, 40.807156]}}, {"type": "Feature", "properties": {"name": "116th Street Festival", "type": "Street Festival", "closure": "Full Street Closure", "start": "2026-06-13 12:00:00", "end": "2026-06-13 17:00:00"}, "geometry": {"type": "Point", "coordinates": [-73.940955, 40.796669]}}, {"type": "Feature", "properties": {"name": "Gospel Family and Friends Fest", "type": "Street Event", "closure": "Full Street Closure", "start": "2026-06-13 12:00:00", "end": "2026-06-13 17:00:00"}, "geometry": {"type": "Point", "coordinates": [-73.977271, 40.740057]}}, {"type": "Feature", "properties": {"name": "Hare Krishna Festival 2026", "type": "Parade", "closure": "Full Street Closure", "start": "2026-06-13 12:00:00", "end": "2026-06-13 15:00:00"}, "geometry": {"type": "Point", "coordinates": [-73.980579, 40.752478]}}, {"type": "Feature", "properties": {"name": "Open Street: Open Arts LES Pride on Ave B", "type": "Open Street Partner Event", "closure": "Full Street Closure", "start": "2026-06-13 13:00:00", "end": "2026-06-13 16:00:00"}, "geometry": {"type": "Point", "coordinates": [-73.980504, 40.725968]}}, {"type": "Feature", "properties": {"name": "NYC Kidsfest", "type": "Street Event", "closure": "Full Street Closure", "start": "2026-06-13 14:00:00", "end": "2026-06-13 19:00:00"}, "geometry": {"type": "Point", "coordinates": [-73.958219, 40.80349]}}, {"type": "Feature", "properties": {"name": "AMSTERDAM AVENUE FAIR", "type": "Street Festival", "closure": "Full Street Closure", "start": "2026-06-14 10:00:00", "end": "2026-06-14 18:00:00"}, "geometry": {"type": "Point", "coordinates": [-73.976669, 40.785419]}}, {"type": "Feature", "properties": {"name": "National Puerto Rican Day Parade", "type": "Parade", "closure": "Full Street Closure", "start": "2026-06-14 04:00:00", "end": "2026-06-14 17:30:00"}, "geometry": {"type": "Point", "coordinates": [-73.978688, 40.754251]}}, {"type": "Feature", "properties": {"name": "EIGHTH AVENUE SUMMER FESTIVAL", "type": "Street Festival", "closure": "Full Street Closure", "start": "2026-06-14 09:00:00", "end": "2026-06-14 18:00:00"}, "geometry": {"type": "Point", "coordinates": [-73.986332, 40.761975]}}, {"type": "Feature", "properties": {"name": "Astor Place Fair", "type": "Single Block Festival", "closure": "Full Street Closure", "start": "2026-06-14 10:00:00", "end": "2026-06-14 18:00:00"}, "geometry": {"type": "Point", "coordinates": [-73.992047, 40.730016]}}, {"type": "Feature", "properties": {"name": "Annual PS 199 School Spring Carnival", "type": "Street Event", "closure": "Full Street Closure", "start": "2026-06-14 11:00:00", "end": "2026-06-14 16:30:00"}, "geometry": {"type": "Point", "coordinates": [-73.984007, 40.777883]}}, {"type": "Feature", "properties": {"name": "U.S. Army 251st Birthday NYC", "type": "Plaza Event", "closure": "Pedestrian Plaza", "start": "2026-06-14 12:00:00", "end": "2026-06-14 15:30:00"}, "geometry": {"type": "Point", "coordinates": [-73.985972, 40.75701]}}, {"type": "Feature", "properties": {"name": "Educational Show  Prove 2026", "type": "Street Event", "closure": "Full Street Closure", "start": "2026-06-14 12:00:00", "end": "2026-06-14 18:00:00"}, "geometry": {"type": "Point", "coordinates": [-73.947845, 40.80965]}}, {"type": "Feature", "properties": {"name": "Alofoke Radio Show", "type": "Plaza Partner Event", "closure": "Pedestrian Plaza", "start": "2026-06-14 12:00:00", "end": "2026-06-14 20:00:00"}, "geometry": {"type": "Point", "coordinates": [-73.927659, 40.865854]}}, {"type": "Feature", "properties": {"name": "Bloomingdale's Neighborhood Potluck Gathering-Longest Table", "type": "Street Event", "closure": "Full Street Closure", "start": "2026-06-14 18:00:00", "end": "2026-06-14 19:30:00"}, "geometry": {"type": "Point", "coordinates": [-73.969263, 40.799408]}}, {"type": "Feature", "properties": {"name": "School in the Square Block Party/Field Day", "type": "Street Event", "closure": "Full Street Closure", "start": "2026-06-17 08:30:00", "end": "2026-06-17 15:00:00"}, "geometry": {"type": "Point", "coordinates": [-73.921019, 40.868755]}}, {"type": "Feature", "properties": {"name": "NY Presbyterian Employee Appreciation Event", "type": "Plaza Event", "closure": "Pedestrian Plaza", "start": "2026-06-17 11:00:00", "end": "2026-06-17 18:00:00"}, "geometry": {"type": "Point", "coordinates": [-73.942618, 40.84268]}}, {"type": "Feature", "properties": {"name": "Knicks Ticker Tape Parade", "type": "Parade", "closure": "Full Street Closure", "start": "2026-06-18 10:00:00", "end": "2026-06-18 15:00:00"}, "geometry": {"type": "Point", "coordinates": [-74.015453, 40.706387]}}, {"type": "Feature", "properties": {"name": "Knicks Ticker Tape Parade 2026", "type": "Street Event", "closure": "Full Street Closure", "start": "2026-06-18 10:00:00", "end": "2026-06-18 15:00:00"}, "geometry": {"type": "Point", "coordinates": [-74.007502, 40.712799]}}, {"type": "Feature", "properties": {"name": "Broadway Celebrates Juneteenth", "type": "Plaza Event", "closure": "Pedestrian Plaza", "start": "2026-06-19 16:00:00", "end": "2026-06-19 17:30:00"}, "geometry": {"type": "Point", "coordinates": [-73.985972, 40.75701]}}, {"type": "Feature", "properties": {"name": "Juneteenth Parade", "type": "Parade", "closure": "Full Street Closure", "start": "2026-06-20 09:00:00", "end": "2026-06-20 14:00:00"}, "geometry": {"type": "Point", "coordinates": [-73.962429, 40.807409]}}, {"type": "Feature", "properties": {"name": "POST AVENUE PLAZA EVENT", "type": "Plaza Event", "closure": "Pedestrian Plaza", "start": "2026-06-20 09:00:00", "end": "2026-06-20 16:00:00"}, "geometry": {"type": "Point", "coordinates": [-73.918509, 40.865062]}}, {"type": "Feature", "properties": {"name": "17th Annual NYC Multicultural Festival", "type": "Single Block Festival", "closure": "Full Street Closure", "start": "2026-06-20 10:00:00", "end": "2026-06-20 18:00:00"}, "geometry": {"type": "Point", "coordinates": [-73.945421, 40.822652]}}, {"type": "Feature", "properties": {"name": "Juneteenth Celebration", "type": "Single Block Festival", "closure": "Full Street Closure", "start": "2026-06-20 10:00:00", "end": "2026-06-20 18:00:00"}, "geometry": {"type": "Point", "coordinates": [-73.948071, 40.801354]}}, {"type": "Feature", "properties": {"name": "Washington Sq North Fair", "type": "Single Block Festival", "closure": "Full Street Closure", "start": "2026-06-20 10:00:00", "end": "2026-06-20 18:00:00"}, "geometry": {"type": "Point", "coordinates": [-73.997118, 40.73143]}}, {"type": "Feature", "properties": {"name": "AVENUE OF THE AMERICAS EXPO", "type": "Street Festival", "closure": "Full Street Closure", "start": "2026-06-20 10:00:00", "end": "2026-06-20 18:00:00"}, "geometry": {"type": "Point", "coordinates": [-73.981363, 40.758621]}}, {"type": "Feature", "properties": {"name": "Lakeview Reunion", "type": "Block Party", "closure": "Full Street Closure", "start": "2026-06-20 11:00:00", "end": "2026-06-20 17:00:00"}, "geometry": {"type": "Point", "coordinates": [-73.949812, 40.794623]}}, {"type": "Feature", "properties": {"name": "LGBT COMMUNITY CENTER JUNETEENTH BLOCK PARTY 2026", "type": "Street Event", "closure": "Full Street Closure", "start": "2026-06-20 12:00:00", "end": "2026-06-20 19:00:00"}, "geometry": {"type": "Point", "coordinates": [-74.001287, 40.738302]}}, {"type": "Feature", "properties": {"name": "Christian Family Parade", "type": "Parade", "closure": "Full Street Closure", "start": "2026-06-20 12:00:00", "end": "2026-06-20 16:00:00"}, "geometry": {"type": "Point", "coordinates": [-73.949324, 40.786086]}}, {"type": "Feature", "properties": {"name": "Juneteenth Jubilee", "type": "Street Event", "closure": "Full Street Closure", "start": "2026-06-20 12:00:00", "end": "2026-06-20 15:00:00"}, "geometry": {"type": "Point", "coordinates": [-73.950342, 40.812339]}}, {"type": "Feature", "properties": {"name": "Macdougal Street Mambo", "type": "Single Block Festival", "closure": "Full Street Closure", "start": "2026-06-20 12:00:00", "end": "2026-06-20 19:00:00"}, "geometry": {"type": "Point", "coordinates": [-74.002608, 40.727479]}}, {"type": "Feature", "properties": {"name": "ALBANIAN ROOTS PARADE", "type": "Parade", "closure": "Full Street Closure", "start": "2026-06-20 12:00:00", "end": "2026-06-20 16:30:00"}, "geometry": {"type": "Point", "coordinates": [-73.974778, 40.777849]}}, {"type": "Feature", "properties": {"name": "Juneteenth Celebration", "type": "Street Event", "closure": "Full Street Closure", "start": "2026-06-20 13:00:00", "end": "2026-06-20 19:30:00"}, "geometry": {"type": "Point", "coordinates": [-73.93836, 40.836133]}}, {"type": "Feature", "properties": {"name": "Latin Jazz in the Heights 2026", "type": "Plaza Partner Event", "closure": "Pedestrian Plaza", "start": "2026-06-20 14:00:00", "end": "2026-06-20 19:00:00"}, "geometry": {"type": "Point", "coordinates": [-73.938126, 40.846083]}}, {"type": "Feature", "properties": {"name": "Albanian Roots", "type": "Street Event", "closure": "Full Street Closure", "start": "2026-06-20 14:00:00", "end": "2026-06-20 17:00:00"}, "geometry": {"type": "Point", "coordinates": [-73.977381, 40.776822]}}, {"type": "Feature", "properties": {"name": "No B Festival", "type": "Block Party", "closure": "Full Street Closure", "start": "2026-06-20 15:00:00", "end": "2026-06-20 20:00:00"}, "geometry": {"type": "Point", "coordinates": [-73.978281, 40.729096]}}, {"type": "Feature", "properties": {"name": "Solstice in Times Square", "type": "Plaza Partner Event", "closure": "Pedestrian Plaza", "start": "2026-06-21 07:30:00", "end": "2026-06-21 21:30:00"}, "geometry": {"type": "Point", "coordinates": [-73.985972, 40.75701]}}, {"type": "Feature", "properties": {"name": "2026 Harlem Skyscraper Cycling Classic", "type": "Athletic Race / Tour", "closure": "Full Street Closure", "start": "2026-06-21 08:00:00", "end": "2026-06-21 17:30:00"}, "geometry": {"type": "Point", "coordinates": [-73.942994, 40.802521]}}, {"type": "Feature", "properties": {"name": "KULTUREFEST OF SIXTH", "type": "Street Festival", "closure": "Full Street Closure", "start": "2026-06-21 10:00:00", "end": "2026-06-21 18:00:00"}, "geometry": {"type": "Point", "coordinates": [-73.980906, 40.759246]}}, {"type": "Feature", "properties": {"name": "Norwegian Football Family Gathering", "type": "Street Event", "closure": "Full Street Closure", "start": "2026-06-21 11:00:00", "end": "2026-06-21 15:00:00"}, "geometry": {"type": "Point", "coordinates": [-73.966425, 40.755639]}}, {"type": "Feature", "properties": {"name": "Folsom Street East 2026", "type": "Single Block Festival", "closure": "Full Street Closure", "start": "2026-06-21 11:00:00", "end": "2026-06-21 18:00:00"}, "geometry": {"type": "Point", "coordinates": [-74.006377, 40.751909]}}, {"type": "Feature", "properties": {"name": "Make Music New York", "type": "Plaza Event", "closure": "Pedestrian Plaza", "start": "2026-06-21 12:00:00", "end": "2026-06-21 15:00:00"}, "geometry": {"type": "Point", "coordinates": [-74.009189, 40.716188]}}, {"type": "Feature", "properties": {"name": "Egg Rolls Egg Creams and Empanadas Street Festival", "type": "Single Block Festival", "closure": "Full Street Closure", "start": "2026-06-21 12:00:00", "end": "2026-06-21 16:00:00"}, "geometry": {"type": "Point", "coordinates": [-73.993667, 40.714822]}}, {"type": "Feature", "properties": {"name": "COMMUNITY EVENT", "type": "Street Event", "closure": "Full Street Closure", "start": "2026-06-21 12:00:00", "end": "2026-06-21 17:00:00"}, "geometry": {"type": "Point", "coordinates": [-73.935719, 40.818525]}}, {"type": "Feature", "properties": {"name": "Make Music New York", "type": "Plaza Event", "closure": "Pedestrian Plaza", "start": "2026-06-21 14:00:00", "end": "2026-06-21 17:00:00"}, "geometry": {"type": "Point", "coordinates": [-73.990926, 40.72997]}}, {"type": "Feature", "properties": {"name": "Make Music New York", "type": "Plaza Event", "closure": "Pedestrian Plaza", "start": "2026-06-21 17:00:00", "end": "2026-06-21 18:00:00"}, "geometry": {"type": "Point", "coordinates": [-73.95249, 40.798508]}}, {"type": "Feature", "properties": {"name": "La 593 Ecuador Supporters Gathering", "type": "Stationary Demonstration", "closure": "Pedestrian Plaza", "start": "2026-06-24 20:00:00", "end": "2026-06-24 22:00:00"}, "geometry": {"type": "Point", "coordinates": [-73.985972, 40.75701]}}, {"type": "Feature", "properties": {"name": "SAINT PETER'S CHURCH BLOCK PARTY", "type": "Single Block Festival", "closure": "Full Street Closure", "start": "2026-06-25 10:00:00", "end": "2026-06-25 18:00:00"}, "geometry": {"type": "Point", "coordinates": [-73.969739, 40.758671]}}, {"type": "Feature", "properties": {"name": "The Doors BAG Block Party", "type": "Street Event", "closure": "Full Street Closure", "start": "2026-06-25 12:00:00", "end": "2026-06-25 16:30:00"}, "geometry": {"type": "Point", "coordinates": [-74.004654, 40.724566]}}, {"type": "Feature", "properties": {"name": "PRIDE in TSq", "type": "Plaza Partner Event", "closure": "Pedestrian Plaza", "start": "2026-06-26 11:00:00", "end": "2026-06-26 19:00:00"}, "geometry": {"type": "Point", "coordinates": [-73.985972, 40.75701]}}, {"type": "Feature", "properties": {"name": "Soccer Streets 47th St PS 212", "type": "Street Event", "closure": "Full Street Closure", "start": "2026-06-26 12:00:00", "end": "2026-06-26 14:00:00"}, "geometry": {"type": "Point", "coordinates": [-73.988896, 40.761007]}}, {"type": "Feature", "properties": {"name": "Chinatown Nights", "type": "Single Block Festival", "closure": "Full Street Closure", "start": "2026-06-26 19:30:00", "end": "2026-06-26 23:30:00"}, "geometry": {"type": "Point", "coordinates": [-73.994194, 40.714945]}}, {"type": "Feature", "properties": {"name": "Chinatown Nights", "type": "Plaza Partner Event", "closure": "Pedestrian Plaza", "start": "2026-06-26 19:30:00", "end": "2026-06-26 23:30:00"}, "geometry": {"type": "Point", "coordinates": [-73.994194, 40.714945]}}, {"type": "Feature", "properties": {"name": "The Drag March", "type": "Parade", "closure": "Full Street Closure", "start": "2026-06-26 20:00:00", "end": "2026-06-27 23:30:00"}, "geometry": {"type": "Point", "coordinates": [-73.981684, 40.726486]}}, {"type": "Feature", "properties": {"name": "CRCA Grants Tomb Crit", "type": "Athletic Race / Tour", "closure": "Full Street Closure", "start": "2026-06-27 07:00:00", "end": "2026-06-27 18:00:00"}, "geometry": {"type": "Point", "coordinates": [-73.9635, 40.811999]}}, {"type": "Feature", "properties": {"name": "Prevention Is Power - Community Health Fair", "type": "Plaza Partner Event", "closure": "Pedestrian Plaza", "start": "2026-06-27 09:00:00", "end": "2026-06-27 15:00:00"}, "geometry": {"type": "Point", "coordinates": [-73.942618, 40.84268]}}, {"type": "Feature", "properties": {"name": "Bikers for Babies", "type": "Parade", "closure": "Full Street Closure", "start": "2026-06-27 09:00:00", "end": "2026-06-27 18:00:00"}, "geometry": {"type": "Point", "coordinates": [-73.936719, 40.819797]}}, {"type": "Feature", "properties": {"name": "3rd Avenue Cooper Square Fair", "type": "Street Festival", "closure": "Full Street Closure", "start": "2026-06-27 10:00:00", "end": "2026-06-27 18:00:00"}, "geometry": {"type": "Point", "coordinates": [-73.988988, 40.730827]}}, {"type": "Feature", "properties": {"name": "A Stroll 4 Cancer Awareness", "type": "Street Event", "closure": "Full Street Closure", "start": "2026-06-27 10:00:00", "end": "2026-06-27 16:00:00"}, "geometry": {"type": "Point", "coordinates": [-73.956387, 40.810666]}}, {"type": "Feature", "properties": {"name": "LOWER 6TH AVENUE MERCHANDISE FAIR", "type": "Street Festival", "closure": "Full Street Closure", "start": "2026-06-27 10:00:00", "end": "2026-06-27 18:00:00"}, "geometry": {"type": "Point", "coordinates": [-73.990272, 40.746356]}}, {"type": "Feature", "properties": {"name": "Unity In The Community", "type": "Street Event", "closure": "Full Street Closure", "start": "2026-06-27 10:00:00", "end": "2026-06-27 16:15:00"}, "geometry": {"type": "Point", "coordinates": [-73.93287, 40.797468]}}, {"type": "Feature", "properties": {"name": "Harlem Pride Celebration Day 2026", "type": "Single Block Festival", "closure": "Full Street Closure", "start": "2026-06-27 10:00:00", "end": "2026-06-27 18:00:00"}, "geometry": {"type": "Point", "coordinates": [-73.959588, 40.819088]}}, {"type": "Feature", "properties": {"name": "Juneteenth Community Celebration", "type": "Street Event", "closure": "Full Street Closure", "start": "2026-06-27 10:00:00", "end": "2026-06-27 14:00:00"}, "geometry": {"type": "Point", "coordinates": [-73.939186, 40.795075]}}, {"type": "Feature", "properties": {"name": "41st Street Fair", "type": "Single Block Festival", "closure": "Full Street Closure", "start": "2026-06-27 10:00:00", "end": "2026-06-27 18:00:00"}, "geometry": {"type": "Point", "coordinates": [-73.985634, 40.754615]}}, {"type": "Feature", "properties": {"name": "Harlem Pride Celebration Day 2026", "type": "Single Block Festival", "closure": "Full Street Closure", "start": "2026-06-27 10:00:00", "end": "2026-06-27 18:00:00"}, "geometry": {"type": "Point", "coordinates": [-73.960036, 40.818471]}}, {"type": "Feature", "properties": {"name": "Annual Community Wellness Fair", "type": "Health Fair", "closure": "Full Street Closure", "start": "2026-06-27 10:00:00", "end": "2026-06-27 17:00:00"}, "geometry": {"type": "Point", "coordinates": [-73.951159, 40.807639]}}, {"type": "Feature", "properties": {"name": "Love Day 26", "type": "Block Party", "closure": "Full Street Closure", "start": "2026-06-27 11:00:00", "end": "2026-06-27 19:00:00"}, "geometry": {"type": "Point", "coordinates": [-73.949812, 40.794623]}}, {"type": "Feature", "properties": {"name": "COMMUNITY PRIDE BLOCK PARTY", "type": "Street Event", "closure": "Full Street Closure", "start": "2026-06-27 11:00:00", "end": "2026-06-27 18:00:00"}, "geometry": {"type": "Point", "coordinates": [-73.952797, 40.805878]}}, {"type": "Feature", "properties": {"name": "Jones Street Festival", "type": "Single Block Festival", "closure": "Full Street Closure", "start": "2026-06-27 11:00:00", "end": "2026-06-27 15:00:00"}, "geometry": {"type": "Point", "coordinates": [-74.002476, 40.732032]}}, {"type": "Feature", "properties": {"name": "Health and Wellness Fair", "type": "Health Fair", "closure": "Full Street Closure", "start": "2026-06-27 11:00:00", "end": "2026-06-27 16:00:00"}, "geometry": {"type": "Point", "coordinates": [-73.93997, 40.817879]}}, {"type": "Feature", "properties": {"name": "UPTOWN HOUSE MUSIC", "type": "Plaza Event", "closure": "Pedestrian Plaza", "start": "2026-06-27 12:00:00", "end": "2026-06-27 19:00:00"}, "geometry": {"type": "Point", "coordinates": [-73.938126, 40.846083]}}, {"type": "Feature", "properties": {"name": "3:16 Kingdom Block Party", "type": "Street Event", "closure": "Full Street Closure", "start": "2026-06-27 12:30:00", "end": "2026-06-27 15:30:00"}, "geometry": {"type": "Point", "coordinates": [-73.949808, 40.788743]}}, {"type": "Feature", "properties": {"name": "Family Fest at PrideFest 2026", "type": "Plaza Event", "closure": "Pedestrian Plaza", "start": "2026-06-28 00:00:00", "end": "2026-06-28 18:00:00"}, "geometry": {"type": "Point", "coordinates": [-73.990926, 40.72997]}}, {"type": "Feature", "properties": {"name": "PrideFest 2026", "type": "Street Festival", "closure": "Full Street Closure", "start": "2026-06-28 10:00:00", "end": "2026-06-28 18:00:00"}, "geometry": {"type": "Point", "coordinates": [-73.990118, 40.732406]}}, {"type": "Feature", "properties": {"name": "StageFest at PrideFest 2026", "type": "Street Event", "closure": "Full Street Closure", "start": "2026-06-28 10:00:00", "end": "2026-06-28 18:00:00"}, "geometry": {"type": "Point", "coordinates": [-73.99044, 40.730932]}}, {"type": "Feature", "properties": {"name": "NYC Pride Health Fair", "type": "Health Fair", "closure": "Full Street Closure", "start": "2026-06-28 10:00:00", "end": "2026-06-28 17:00:00"}, "geometry": {"type": "Point", "coordinates": [-73.998342, 40.729988]}}, {"type": "Feature", "properties": {"name": "2026 NYC Pride March", "type": "Parade", "closure": "Full Street Closure", "start": "2026-06-28 11:00:00", "end": "2026-06-28 19:00:00"}, "geometry": {"type": "Point", "coordinates": [-73.986528, 40.748402]}}, {"type": "Feature", "properties": {"name": "Fuzhou America Open Mics", "type": "Open Street Partner Event", "closure": "Full Street Closure", "start": "2026-06-28 13:00:00", "end": "2026-06-28 16:30:00"}, "geometry": {"type": "Point", "coordinates": [-73.994041, 40.71401]}}]}